{
"type": "FeatureCollection",
"name": "water_lines",
"crs": { "type": "name", "properties": { "name": "urn:ogc:def:crs:OGC:1.3:CRS84" } },
"features": [
{ "type": "Feature", "properties": { "osm_id": 696068372, "waterway": "river", "admin_level": "4", "boundary": "administrative", "name": "Mississippi River", "name:oj": "Misi-ziibi", "name:pt": "Rio Mississippi", "name:az": "Missisipi Ã§ayÄ±", "name:ka": "áƒ›áƒ˜áƒ¡áƒ˜áƒ¡áƒ˜áƒáƒ˜", "name:ko": "ë¯¸ì‹œì‹œí”¼ ê°•", "name:kn": "à²®à²¿à²¸à²¿à²¸à²¿à²ªà³€", "name:ar": "Ù†Ù‡Ø± Ø§Ù„Ù…Ø³ÙŠØ³ÙŠØ¨ÙŠ", "name:cr": "á’¥á“¯ á“°á±á©", "name:syc": "Ü¢Ü—ÜªÜ Ü•Ü¡ÜÜ£ÜÜ£ÜÜ¦Ü", "name:ku": "RobarÃª MÃ®sÃ®sÃ®pÃ®", "name:ckb": "Ú•ÙˆÙˆØ¨Ø§Ø±ÛŒ Ù…ÛŒØ³ÛŒØ³ÛŒÙ¾ÛŒ", "name:am": "áˆšáˆ²áˆ²á’ á‹ˆáŠ•á‹", "name:tl": "Ilog Mississippi", "name:an": "RÃ­o Misisipi", "name:ru": "ĞœĞ¸ÑÑĞ¸ÑĞ¸Ğ¿Ğ¸", "alt_name:es": "RÃ­o Misisipi", "name:af": "Mississippirivier", "name:fa": "Ø±ÙˆØ¯ Ù…ÛŒØ³ÛŒØ³ÛŒÙ¾ÛŒ", "name:mia": "mihsi-siipiiwi", "name:pot": "MjezibÃ©", "name:win": "NÄ¯Ä¯xete", "alt_name:qua": "nÃ­utanka", "name:uz": "Mississippi daryosi", "wikipedia": "en:Mississippi River", "border_type": "state", "name:de": "Mississippi", "name:tr": "Mississippi Nehri", "name:fr": "Le Mississippi", "name:grc": "ÎœÎ¹ÏƒÏƒÎ¹ÏƒÏƒÎ¹Ï€Ï€Î®Ï‚", "name:qua": "nÃ­ ottÄ…Ìka", "alt_name:paw": "kickaÃ¡tit", "name:zh": "å¯†è¥¿è¥¿æ¯”æ²³", "alt_name:dak": "MnÃ­Å¡oÅ¡ethÄ…ka", "name:pa": "à¨®à¨¿à¨¸à©€à¨¸à¨¿à©±à¨ªà©€ à¨¦à¨°à¨¿à¨†", "name:chy": "Ma'xeÃ©'ome'tÃ¤Ã¤'e", "name:paw": "kÃ­ckaatiit", "name:lt": "MisisipÄ—", "name:hi": "à¤®à¤¿à¤¸à¤¿à¤¸à¤¿à¤ªà¥à¤ªà¥€ à¤¨à¤¦à¥€", "alt_name:fa": "Ø±ÙˆØ¯ Ù…ÛŒâ€ŒØ³ÛŒâ€ŒØ³ÛŒâ€ŒÙ¾ÛŒ", "name:sv": "Mississippifloden", "name:he": "× ×”×¨ ××™×¡×™×¡×™×¤×™", "name:moh": "OhnawiiÃ²:ke", "name:ur": "Ø¯Ø±ÛŒØ§Ø¦Û’ Ù…Ø³ÛŒØ³Ù¾ÛŒ", "name:ny": "Mtsinje wa Mississippi", "name:bn": "à¦®à¦¿à¦¸à¦¿à¦¸à¦¿à¦ªà¦¿ à¦¨à¦¦à§€", "name:uk": "ĞœÑ–ÑÑÑ–ÑÑ–Ğ¿Ñ–", "name:hy": "Õ„Õ«Õ½Õ«Õ½Õ«ÕºÕ« Õ£Õ¥Õ¿", "name:sw": "Mto Mississippi", "name:be": "ĞœÑ–ÑÑ–ÑÑ–Ğ¿Ñ–", "alt_name:fr": "Mississippi", "name:arc": "Ü¢Ü—ÜªÜ Ü•Ü¡ÜÜ£ÜÜ£ÜÜ¦Ü", "name:qu": "Mississippi mayu", "name:sr": "ĞœĞ¸ÑĞ¸ÑĞ¸Ğ¿Ğ¸", "name:sq": "Lumi i Misisipit", "name:so": "Webiga Mississipi", "name:el": "ÎœÎ¹ÏƒÏƒÎ¹ÏƒÏƒÎ¹Ï€Ï€Î®Ï‚", "oneway:flow": "yes", "name:azb": "Ù…ÛŒØ³ÛŒØ³ÛŒÙ¾ÛŒ Ú†Ø§ÛŒÛŒ", "name:dak": "WÃ¡kpa TÃ¡nka", "name:cho": "Mississippi Bok", "name:gn": "Ysyry Misisipi", "name:sac": "mÃªsisÃ®pÃ´wi", "name:osa": "ğ“ğ’» ğ“ˆğ’°Í˜ğ’¼ğ’° 3", "name:kbp": "Misisipii PÉ”É”", "name:mez": "MÇ£hsesÄ“pÄ“w", "name:yi": "××™×¡×™×¡×™×¤×™ ×˜×™×™×š", "wikidata": "Q1497", "name:crk": "misi-sÃ®piy", "name:es": "RÃ­o MisisipÃ­", "name:be-tarask": "ĞœÑ–ÑÑ‹ÑÑ‹Ğ¿Ñ–" }, "geometry": { "type": "LineString", "coordinates": [ [ -90.2099111, 38.726077 ], [ -90.2113895, 38.7213494 ], [ -90.212814, 38.717564 ], [ -90.212509, 38.712151 ], [ -90.211945, 38.707573 ], [ -90.208595, 38.701618 ], [ -90.205765, 38.697937 ], [ -90.202339, 38.694248 ], [ -90.19873, 38.691132 ], [ -90.195311, 38.6879009 ] ] } },
{ "type": "Feature", "properties": { "osm_id": 151230307, "waterway": "stream", "admin_level": null, "boundary": null, "name": "Maline Creek", "name:oj": null, "name:pt": null, "name:az": null, "name:ka": null, "name:ko": null, "name:kn": null, "name:ar": null, "name:cr": null, "name:syc": null, "name:ku": null, "name:ckb": null, "name:am": null, "name:tl": null, "name:an": null, "name:ru": null, "alt_name:es": null, "name:af": null, "name:fa": null, "name:mia": null, "name:pot": null, "name:win": null, "alt_name:qua": null, "name:uz": null, "wikipedia": null, "border_type": null, "name:de": null, "name:tr": null, "name:fr": null, "name:grc": null, "name:qua": null, "alt_name:paw": null, "name:zh": null, "alt_name:dak": null, "name:pa": null, "name:chy": null, "name:paw": null, "name:lt": null, "name:hi": null, "alt_name:fa": null, "name:sv": null, "name:he": null, "name:moh": null, "name:ur": null, "name:ny": null, "name:bn": null, "name:uk": null, "name:hy": null, "name:sw": null, "name:be": null, "alt_name:fr": null, "name:arc": null, "name:qu": null, "name:sr": null, "name:sq": null, "name:so": null, "name:el": null, "oneway:flow": null, "name:azb": null, "name:dak": null, "name:cho": null, "name:gn": null, "name:sac": null, "name:osa": null, "name:kbp": null, "name:mez": null, "name:yi": null, "wikidata": null, "name:crk": null, "name:es": null, "name:be-tarask": null }, "geometry": { "type": "LineString", "coordinates": [ [ -90.2877586, 38.7374063 ], [ -90.2871334, 38.7377396 ], [ -90.286737, 38.7378734 ], [ -90.2856952, 38.7382215 ], [ -90.2853826, 38.738292 ], [ -90.2850282, 38.7382912 ], [ -90.2847877, 38.7382592 ], [ -90.2844846, 38.7381547 ], [ -90.2840283, 38.7381078 ], [ -90.2825766, 38.7379586 ], [ -90.2821451, 38.7379391 ], [ -90.281831, 38.7379855 ], [ -90.2815877, 38.738087 ], [ -90.2812878, 38.738343 ], [ -90.2810473, 38.7385196 ], [ -90.2806172, 38.7387049 ], [ -90.2803343, 38.7387778 ], [ -90.2801535, 38.7387833 ], [ -90.2799297, 38.7387866 ], [ -90.2791462, 38.7386759 ], [ -90.2787823, 38.7386588 ], [ -90.2779607, 38.7387024 ], [ -90.2774485, 38.7388017 ], [ -90.277109, 38.7389518 ], [ -90.276827, 38.7391622 ], [ -90.2761527, 38.7395344 ], [ -90.2757566, 38.739658 ], [ -90.2751115, 38.7398345 ], [ -90.2747437, 38.7398698 ], [ -90.2742712, 38.7398323 ], [ -90.2728933, 38.7396668 ], [ -90.2723982, 38.7395543 ], [ -90.2717616, 38.7393755 ], [ -90.2711929, 38.7393049 ], [ -90.269699, 38.7391195 ], [ -90.2689925, 38.7390298 ], [ -90.2686391, 38.7390185 ], [ -90.2682306, 38.7390732 ], [ -90.2678492, 38.7391287 ], [ -90.2675208, 38.7391368 ], [ -90.2672941, 38.7391195 ], [ -90.2669545, 38.7390842 ], [ -90.2666858, 38.7391085 ], [ -90.2654754, 38.7392888 ], [ -90.2649938, 38.7393865 ], [ -90.2648297, 38.7394682 ], [ -90.2646288, 38.7395013 ], [ -90.2644591, 38.7394836 ], [ -90.2643459, 38.7394108 ], [ -90.2642384, 38.7392585 ], [ -90.2640913, 38.7391681 ], [ -90.2635226, 38.7388767 ], [ -90.2631717, 38.7386472 ], [ -90.2629482, 38.7385943 ], [ -90.2625493, 38.7385634 ], [ -90.2620909, 38.73857 ], [ -90.2618027, 38.7386539 ], [ -90.2616037, 38.7386809 ], [ -90.2613779, 38.7386803 ], [ -90.2606303, 38.7386639 ], [ -90.2603141, 38.7387178 ], [ -90.2598473, 38.7388105 ], [ -90.2594993, 38.7389143 ], [ -90.259243, 38.7390762 ], [ -90.2588514, 38.7393505 ], [ -90.258067, 38.7397487 ], [ -90.2567374, 38.740662 ], [ -90.2564836, 38.740743 ], [ -90.2561722, 38.7407902 ], [ -90.2553012, 38.7410894 ], [ -90.2547158, 38.7412784 ], [ -90.2543985, 38.7413256 ], [ -90.254087, 38.7412941 ], [ -90.2536227, 38.7410512 ], [ -90.2531267, 38.7408667 ], [ -90.2528238, 38.740743 ], [ -90.2525499, 38.740509 ], [ -90.2522009, 38.7402593 ], [ -90.2519731, 38.7401109 ], [ -90.2517395, 38.7400636 ], [ -90.2514395, 38.7400816 ], [ -90.2509637, 38.7401154 ], [ -90.2506147, 38.7401334 ], [ -90.2504676, 38.7400996 ], [ -90.2502398, 38.7399174 ], [ -90.2498706, 38.7396205 ], [ -90.2497697, 38.7394405 ], [ -90.2498216, 38.7392718 ], [ -90.2500004, 38.7390311 ], [ -90.2500148, 38.7389524 ], [ -90.2499831, 38.7388376 ], [ -90.2498793, 38.7387702 ], [ -90.2497351, 38.7387207 ], [ -90.2495418, 38.7387229 ], [ -90.2492909, 38.7387814 ], [ -90.2490804, 38.7388511 ], [ -90.2489417, 38.738921 ], [ -90.248518, 38.7391593 ], [ -90.2483998, 38.7392785 ], [ -90.2482642, 38.739355 ], [ -90.2481085, 38.7394 ], [ -90.2479441, 38.7393798 ], [ -90.2478143, 38.739301 ], [ -90.2477047, 38.7391548 ], [ -90.2475923, 38.7388624 ], [ -90.2474423, 38.7386037 ], [ -90.2473039, 38.7384912 ], [ -90.2471568, 38.738435 ], [ -90.2470443, 38.7384642 ], [ -90.2469247, 38.7386281 ], [ -90.2466924, 38.7390873 ], [ -90.2465684, 38.7392718 ], [ -90.2464012, 38.7393865 ], [ -90.2460955, 38.739481 ], [ -90.2459166, 38.7396182 ], [ -90.2458503, 38.7397464 ], [ -90.2458474, 38.7399084 ], [ -90.2459138, 38.7400434 ], [ -90.246058, 38.7401199 ], [ -90.2461329, 38.7402751 ], [ -90.2461589, 38.740437 ], [ -90.2460435, 38.740545 ], [ -90.2458749, 38.7405909 ], [ -90.2456196, 38.740563 ], [ -90.2453052, 38.7406193 ], [ -90.2449246, 38.7408307 ], [ -90.243869, 38.7411614 ], [ -90.2433326, 38.7414403 ], [ -90.2431567, 38.7415033 ], [ -90.2428907, 38.7415319 ], [ -90.2427067, 38.7414876 ], [ -90.2424876, 38.7413773 ], [ -90.2423435, 38.7412139 ], [ -90.2422049, 38.7411209 ], [ -90.241732, 38.7409387 ], [ -90.2410162, 38.7408957 ], [ -90.2407377, 38.7408438 ], [ -90.2403739, 38.7407579 ], [ -90.2401226, 38.7406616 ], [ -90.2398147, 38.7405455 ], [ -90.239584, 38.7405163 ], [ -90.2392826, 38.7405488 ], [ -90.2390435, 38.7405261 ], [ -90.2388211, 38.7404693 ], [ -90.2385488, 38.7404628 ], [ -90.2383575, 38.740505 ], [ -90.2379543, 38.7406914 ], [ -90.2377817, 38.7407514 ], [ -90.2374471, 38.7407936 ], [ -90.2371228, 38.7408228 ], [ -90.2368151, 38.740779 ], [ -90.2363537, 38.7406331 ], [ -90.2360439, 38.740505 ], [ -90.2356781, 38.7404336 ], [ -90.2346907, 38.7403558 ], [ -90.2338738, 38.740312 ], [ -90.2333208, 38.7403072 ], [ -90.2330444, 38.7402893 ], [ -90.2328781, 38.7402358 ], [ -90.2327533, 38.7401677 ], [ -90.2326536, 38.7400461 ], [ -90.2326473, 38.7399229 ], [ -90.2326681, 38.7397592 ], [ -90.2327325, 38.7396651 ], [ -90.2329217, 38.7395873 ], [ -90.233009, 38.7395046 ], [ -90.2330714, 38.7393279 ], [ -90.2330963, 38.7388771 ], [ -90.2331608, 38.7385901 ], [ -90.2331379, 38.7383502 ], [ -90.2330818, 38.7379918 ], [ -90.2330735, 38.7377275 ], [ -90.2329903, 38.7375411 ], [ -90.2328448, 38.7373643 ], [ -90.2326307, 38.7372087 ], [ -90.2325018, 38.7371 ], [ -90.2324311, 38.7369282 ], [ -90.2324083, 38.7367547 ], [ -90.2324498, 38.7365893 ], [ -90.2324623, 38.7364044 ], [ -90.2324083, 38.736252 ], [ -90.2323147, 38.7361369 ], [ -90.2321404, 38.7360505 ], [ -90.2319489, 38.7360169 ], [ -90.231687, 38.7359942 ], [ -90.231346, 38.7360169 ], [ -90.2310135, 38.7360704 ], [ -90.2308139, 38.7360899 ], [ -90.2303587, 38.7360331 ], [ -90.2297413, 38.7359488 ], [ -90.2292237, 38.7358142 ], [ -90.2288079, 38.735751 ], [ -90.2285439, 38.7357607 ], [ -90.2283111, 38.7357948 ], [ -90.2280804, 38.7358466 ] ] } },
{ "type": "Feature", "properties": { "osm_id": 115812433, "waterway": "stream", "admin_level": null, "boundary": null, "name": null, "name:oj": null, "name:pt": null, "name:az": null, "name:ka": null, "name:ko": null, "name:kn": null, "name:ar": null, "name:cr": null, "name:syc": null, "name:ku": null, "name:ckb": null, "name:am": null, "name:tl": null, "name:an": null, "name:ru": null, "alt_name:es": null, "name:af": null, "name:fa": null, "name:mia": null, "name:pot": null, "name:win": null, "alt_name:qua": null, "name:uz": null, "wikipedia": null, "border_type": null, "name:de": null, "name:tr": null, "name:fr": null, "name:grc": null, "name:qua": null, "alt_name:paw": null, "name:zh": null, "alt_name:dak": null, "name:pa": null, "name:chy": null, "name:paw": null, "name:lt": null, "name:hi": null, "alt_name:fa": null, "name:sv": null, "name:he": null, "name:moh": null, "name:ur": null, "name:ny": null, "name:bn": null, "name:uk": null, "name:hy": null, "name:sw": null, "name:be": null, "alt_name:fr": null, "name:arc": null, "name:qu": null, "name:sr": null, "name:sq": null, "name:so": null, "name:el": null, "oneway:flow": null, "name:azb": null, "name:dak": null, "name:cho": null, "name:gn": null, "name:sac": null, "name:osa": null, "name:kbp": null, "name:mez": null, "name:yi": null, "wikidata": null, "name:crk": null, "name:es": null, "name:be-tarask": null }, "geometry": { "type": "LineString", "coordinates": [ [ -90.2280804, 38.7358466 ], [ -90.2273424, 38.7362049 ], [ -90.2269094, 38.7365457 ], [ -90.2265727, 38.7366614 ], [ -90.2251577, 38.7364269 ], [ -90.2241475, 38.7361736 ], [ -90.2237787, 38.7360329 ], [ -90.2234901, 38.7355388 ], [ -90.2233899, 38.7352168 ], [ -90.2222274, 38.7339472 ], [ -90.2217143, 38.7333375 ], [ -90.2211811, 38.7325651 ], [ -90.2211731, 38.7323806 ], [ -90.2215459, 38.7315582 ], [ -90.221606, 38.7311173 ], [ -90.2219222, 38.7301227 ], [ -90.2219302, 38.7299976 ], [ -90.2202386, 38.7285059 ], [ -90.219052, 38.7276366 ], [ -90.2187666, 38.7275075 ], [ -90.2185164, 38.7274479 ], [ -90.2181701, 38.7274312 ], [ -90.2177745, 38.7274385 ], [ -90.2173915, 38.7274458 ], [ -90.2161137, 38.7273238 ], [ -90.2148017, 38.7270731 ], [ -90.2099111, 38.726077 ] ] } },
{ "type": "Feature", "properties": { "osm_id": 134592223, "waterway": "river", "admin_level": "4", "boundary": "administrative", "name": "Mississippi River", "name:oj": "Misi-ziibi", "name:pt": "Rio Mississippi", "name:az": "Missisipi Ã§ayÄ±", "name:ka": "áƒ›áƒ˜áƒ¡áƒ˜áƒ¡áƒ˜áƒáƒ˜", "name:ko": "ë¯¸ì‹œì‹œí”¼ ê°•", "name:kn": "à²®à²¿à²¸à²¿à²¸à²¿à²ªà³€", "name:ar": "Ù†Ù‡Ø± Ø§Ù„Ù…Ø³ÙŠØ³ÙŠØ¨ÙŠ", "name:cr": "á’¥á“¯ á“°á±á©", "name:syc": "Ü¢Ü—ÜªÜ Ü•Ü¡ÜÜ£ÜÜ£ÜÜ¦Ü", "name:ku": "RobarÃª MÃ®sÃ®sÃ®pÃ®", "name:ckb": "Ú•ÙˆÙˆØ¨Ø§Ø±ÛŒ Ù…ÛŒØ³ÛŒØ³ÛŒÙ¾ÛŒ", "name:am": "áˆšáˆ²áˆ²á’ á‹ˆáŠ•á‹", "name:tl": "Ilog Mississippi", "name:an": "RÃ­o Misisipi", "name:ru": "ĞœĞ¸ÑÑĞ¸ÑĞ¸Ğ¿Ğ¸", "alt_name:es": "RÃ­o Misisipi", "name:af": "Mississippirivier", "name:fa": "Ø±ÙˆØ¯ Ù…ÛŒØ³ÛŒØ³ÛŒÙ¾ÛŒ", "name:mia": "mihsi-siipiiwi", "name:pot": "MjezibÃ©", "name:win": "NÄ¯Ä¯xete", "alt_name:qua": "nÃ­utanka", "name:uz": "Mississippi daryosi", "wikipedia": "en:Mississippi River", "border_type": "state", "name:de": "Mississippi", "name:tr": "Mississippi Nehri", "name:fr": "Le Mississippi", "name:grc": "ÎœÎ¹ÏƒÏƒÎ¹ÏƒÏƒÎ¹Ï€Ï€Î®Ï‚", "name:qua": "nÃ­ ottÄ…Ìka", "alt_name:paw": "kickaÃ¡tit", "name:zh": "å¯†è¥¿è¥¿æ¯”æ²³", "alt_name:dak": "MnÃ­Å¡oÅ¡ethÄ…ka", "name:pa": "à¨®à¨¿à¨¸à©€à¨¸à¨¿à©±à¨ªà©€ à¨¦à¨°à¨¿à¨†", "name:chy": "Ma'xeÃ©'ome'tÃ¤Ã¤'e", "name:paw": "kÃ­ckaatiit", "name:lt": "MisisipÄ—", "name:hi": "à¤®à¤¿à¤¸à¤¿à¤¸à¤¿à¤ªà¥à¤ªà¥€ à¤¨à¤¦à¥€", "alt_name:fa": "Ø±ÙˆØ¯ Ù…ÛŒâ€ŒØ³ÛŒâ€ŒØ³ÛŒâ€ŒÙ¾ÛŒ", "name:sv": "Mississippifloden", "name:he": "× ×”×¨ ××™×¡×™×¡×™×¤×™", "name:moh": "OhnawiiÃ²:ke", "name:ur": "Ø¯Ø±ÛŒØ§Ø¦Û’ Ù…Ø³ÛŒØ³Ù¾ÛŒ", "name:ny": "Mtsinje wa Mississippi", "name:bn": "à¦®à¦¿à¦¸à¦¿à¦¸à¦¿à¦ªà¦¿ à¦¨à¦¦à§€", "name:uk": "ĞœÑ–ÑÑÑ–ÑÑ–Ğ¿Ñ–", "name:hy": "Õ„Õ«Õ½Õ«Õ½Õ«ÕºÕ« Õ£Õ¥Õ¿", "name:sw": "Mto Mississippi", "name:be": "ĞœÑ–ÑÑ–ÑÑ–Ğ¿Ñ–", "alt_name:fr": "Mississippi", "name:arc": "Ü¢Ü—ÜªÜ Ü•Ü¡ÜÜ£ÜÜ£ÜÜ¦Ü", "name:qu": "Mississippi mayu", "name:sr": "ĞœĞ¸ÑĞ¸ÑĞ¸Ğ¿Ğ¸", "name:sq": "Lumi i Misisipit", "name:so": "Webiga Mississipi", "name:el": "ÎœÎ¹ÏƒÏƒÎ¹ÏƒÏƒÎ¹Ï€Ï€Î®Ï‚", "oneway:flow": "yes", "name:azb": "Ù…ÛŒØ³ÛŒØ³ÛŒÙ¾ÛŒ Ú†Ø§ÛŒÛŒ", "name:dak": "WÃ¡kpa TÃ¡nka", "name:cho": "Mississippi Bok", "name:gn": "Ysyry Misisipi", "name:sac": "mÃªsisÃ®pÃ´wi", "name:osa": "ğ“ğ’» ğ“ˆğ’°Í˜ğ’¼ğ’° 3", "name:kbp": "Misisipii PÉ”É”", "name:mez": "MÇ£hsesÄ“pÄ“w", "name:yi": "××™×¡×™×¡×™×¤×™ ×˜×™×™×š", "wikidata": "Q1497", "name:crk": "misi-sÃ®piy", "name:es": "RÃ­o MisisipÃ­", "name:be-tarask": "ĞœÑ–ÑÑ‹ÑÑ‹Ğ¿Ñ–" }, "geometry": { "type": "LineString", "coordinates": [ [ -90.173142, 38.7585343 ], [ -90.1763259, 38.7544582 ], [ -90.1834378, 38.7468248 ], [ -90.1913157, 38.7429483 ], [ -90.2052221, 38.7321309 ], [ -90.2099111, 38.726077 ] ] } }
]
}
